{
  "norad_id": 65401,
  "name": "STARLINK-34909",
  "history": [
    {
      "epoch": "2026-03-28T21:54:21.758976Z",
      "apogee_km": 551.568799979299,
      "perigee_km": 547.3388130328476,
      "latitude_deg": 1.442725949818071e-05,
      "longitude_deg": 165.58185048699585,
      "height_km": 552.7258159323917,
      "semi_major_axis_km": 6927.590806506073,
      "eccentricity": 0.0003053,
      "inclination_deg": 97.6053,
      "raan_deg": 320.4989,
      "arg_perigee_deg": 95.7527,
      "mean_anomaly_deg": 264.4048,
      "mean_motion_rev_day": 15.05668696
    },
    {
      "epoch": "2026-03-29T04:17:09.572928Z",
      "apogee_km": 551.5531110351967,
      "perigee_km": 547.346680272155,
      "latitude_deg": -6.949824459694629e-05,
      "longitude_deg": 69.88242172075228,
      "height_km": 552.7338986709559,
      "semi_major_axis_km": 6927.586895653675,
      "eccentricity": 0.0003036,
      "inclination_deg": 97.605,
      "raan_deg": 320.7607,
      "arg_perigee_deg": 96.1118,
      "mean_anomaly_deg": 264.0454,
      "mean_motion_rev_day": 15.05669971
    },
    {
      "epoch": "2026-03-30T04:12:38.940480Z",
      "apogee_km": 550.9238382072253,
      "perigee_km": 547.9837686702467,
      "latitude_deg": 1.2727199396083217e-05,
      "longitude_deg": 71.01068900135971,
      "height_km": 552.5151844589336,
      "semi_major_axis_km": 6927.590803438736,
      "eccentricity": 0.0002122,
      "inclination_deg": 97.6049,
      "raan_deg": 321.7439,
      "arg_perigee_deg": 89.989,
      "mean_anomaly_deg": 270.158,
      "mean_motion_rev_day": 15.05668697
    },
    {
      "epoch": "2026-03-30T05:48:20.799360Z",
      "apogee_km": 550.6553113824621,
      "perigee_km": 548.286208080789,
      "latitude_deg": 8.097394374576577e-05,
      "longitude_deg": 47.086565302545964,
      "height_km": 552.6158591237987,
      "semi_major_axis_km": 6927.607759731625,
      "eccentricity": 0.00017099,
      "inclination_deg": 97.6056,
      "raan_deg": 321.8097,
      "arg_perigee_deg": 94.0048,
      "mean_anomaly_deg": 266.1375,
      "mean_motion_rev_day": 15.05663169
    },
    {
      "epoch": "2026-03-30T13:46:52.010112Z",
      "apogee_km": 552.0390904136884,
      "perigee_km": 547.0589154998825,
      "latitude_deg": -1.2548523507654917e-05,
      "longitude_deg": -72.54360211832169,
      "height_km": 552.729427195734,
      "semi_major_axis_km": 6927.686002956785,
      "eccentricity": 0.00035944,
      "inclination_deg": 97.6047,
      "raan_deg": 322.1371,
      "arg_perigee_deg": 92.7973,
      "mean_anomaly_deg": 267.3665,
      "mean_motion_rev_day": 15.05637661
    },
    {
      "epoch": "2026-03-30T21:45:22.526208Z",
      "apogee_km": 552.1005304739492,
      "perigee_km": 547.0197573885898,
      "latitude_deg": 3.062558312896165e-05,
      "longitude_deg": 167.8290146336838,
      "height_km": 552.7031930221754,
      "semi_major_axis_km": 6927.697143931269,
      "eccentricity": 0.0003667,
      "inclination_deg": 97.6042,
      "raan_deg": 322.4644,
      "arg_perigee_deg": 91.9017,
      "mean_anomaly_deg": 268.263,
      "mean_motion_rev_day": 15.05634029
    },
    {
      "epoch": "2026-03-31T21:40:53.037696Z",
      "apogee_km": 552.0169698379077,
      "perigee_km": 546.97503853746,
      "latitude_deg": -7.01100863557831e-05,
      "longitude_deg": 168.95152751377265,
      "height_km": 552.558949562894,
      "semi_major_axis_km": 6927.633004187684,
      "eccentricity": 0.0003639,
      "inclination_deg": 97.6042,
      "raan_deg": 323.4466,
      "arg_perigee_deg": 90.0936,
      "mean_anomaly_deg": 270.0707,
      "mean_motion_rev_day": 15.05654939
    },
    {
      "epoch": "2026-04-01T21:36:19.537632Z",
      "apogee_km": 551.1290926357542,
      "perigee_km": 547.406305350516,
      "latitude_deg": -2.0323543716515528e-05,
      "longitude_deg": 170.08928084045536,
      "height_km": 552.4331240421355,
      "semi_major_axis_km": 6927.404698993135,
      "eccentricity": 0.0002687,
      "inclination_deg": 97.6012,
      "raan_deg": 324.4273,
      "arg_perigee_deg": 93.2202,
      "mean_anomaly_deg": 266.9332,
      "mean_motion_rev_day": 15.05729372
    },
    {
      "epoch": "2026-04-02T21:31:50.392128Z",
      "apogee_km": 551.3424795213259,
      "perigee_km": 547.7369009111353,
      "latitude_deg": -1.7502039649197556e-06,
      "longitude_deg": 171.21344414077683,
      "height_km": 552.3534924775432,
      "semi_major_axis_km": 6927.67669021623,
      "eccentricity": 0.00026023,
      "inclination_deg": 97.6034,
      "raan_deg": 325.4126,
      "arg_perigee_deg": 82.1254,
      "mean_anomaly_deg": 278.0268,
      "mean_motion_rev_day": 15.05640697
    },
    {
      "epoch": "2026-04-03T16:40:14.342016Z",
      "apogee_km": 551.3091467908034,
      "perigee_km": 547.5779519069238,
      "latitude_deg": -6.013578330374211e-06,
      "longitude_deg": -115.88669777078408,
      "height_km": 552.2825088692338,
      "semi_major_axis_km": 6927.580549348863,
      "eccentricity": 0.0002693,
      "inclination_deg": 97.6033,
      "raan_deg": 326.1983,
      "arg_perigee_deg": 83.1748,
      "mean_anomaly_deg": 276.9785,
      "mean_motion_rev_day": 15.0567204
    },
    {
      "epoch": "2026-04-04T21:22:51.257856Z",
      "apogee_km": 551.1630557215794,
      "perigee_km": 547.9416801654852,
      "latitude_deg": 6.589093736861295e-05,
      "longitude_deg": 173.45898756368786,
      "height_km": 552.3841097891117,
      "semi_major_axis_km": 6927.689367943532,
      "eccentricity": 0.0002325,
      "inclination_deg": 97.6024,
      "raan_deg": 327.3769,
      "arg_perigee_deg": 81.8057,
      "mean_anomaly_deg": 278.3434,
      "mean_motion_rev_day": 15.05636564
    },
    {
      "epoch": "2026-04-05T14:55:34.560192Z",
      "apogee_km": 551.4645771896121,
      "perigee_km": 547.7069803544055,
      "latitude_deg": -4.6175709532127975e-05,
      "longitude_deg": -89.72108758203306,
      "height_km": 552.6400460043448,
      "semi_major_axis_km": 6927.7227787720085,
      "eccentricity": 0.0002712,
      "inclination_deg": 97.6019,
      "raan_deg": 328.0978,
      "arg_perigee_deg": 89.806,
      "mean_anomaly_deg": 270.3477,
      "mean_motion_rev_day": 15.05625672
    },
    {
      "epoch": "2026-04-06T03:41:11.213664Z",
      "apogee_km": 551.4718111862612,
      "perigee_km": 547.6086612522558,
      "latitude_deg": 3.9178560376667686e-05,
      "longitude_deg": 78.87423519558641,
      "height_km": 552.0268354686997,
      "semi_major_axis_km": 6927.677236219259,
      "eccentricity": 0.00027882,
      "inclination_deg": 97.6032,
      "raan_deg": 328.6199,
      "arg_perigee_deg": 72.7135,
      "mean_anomaly_deg": 287.4397,
      "mean_motion_rev_day": 15.05640519
    },
    {
      "epoch": "2026-04-07T08:23:43.464768Z",
      "apogee_km": 551.7608474838189,
      "perigee_km": 547.0739412827543,
      "latitude_deg": 3.584661385829149e-05,
      "longitude_deg": 8.241117878245939,
      "height_km": 552.8826442018495,
      "semi_major_axis_km": 6927.554394383286,
      "eccentricity": 0.00033828,
      "inclination_deg": 97.5995,
      "raan_deg": 329.8002,
      "arg_perigee_deg": 99.9663,
      "mean_anomaly_deg": 260.1946,
      "mean_motion_rev_day": 15.05680567
    },
    {
      "epoch": "2026-04-07T21:09:19.414080Z",
      "apogee_km": 551.1744460747905,
      "perigee_km": 547.8422486627051,
      "latitude_deg": -2.120302170430632e-05,
      "longitude_deg": 176.84300108917208,
      "height_km": 552.1716767400486,
      "semi_major_axis_km": 6927.645347368747,
      "eccentricity": 0.0002405,
      "inclination_deg": 97.6021,
      "raan_deg": 330.3259,
      "arg_perigee_deg": 76.182,
      "mean_anomaly_deg": 283.9674,
      "mean_motion_rev_day": 15.05650915
    },
    {
      "epoch": "2026-04-08T14:42:02.407968Z",
      "apogee_km": 551.0561012255721,
      "perigee_km": 548.049622379348,
      "latitude_deg": 2.2284481381230625e-05,
      "longitude_deg": -86.33770700709864,
      "height_km": 552.3630248439327,
      "semi_major_axis_km": 6927.68986180246,
      "eccentricity": 0.00021699,
      "inclination_deg": 97.6029,
      "raan_deg": 331.0449,
      "arg_perigee_deg": 80.3716,
      "mean_anomaly_deg": 279.7756,
      "mean_motion_rev_day": 15.05636403
    },
    {
      "epoch": "2026-04-09T19:24:39.785184Z",
      "apogee_km": 550.9643464013307,
      "perigee_km": 548.1447759359353,
      "latitude_deg": -1.4190258653117719e-05,
      "longitude_deg": -156.9939376285439,
      "height_km": 552.33568168176,
      "semi_major_axis_km": 6927.691561168633,
      "eccentricity": 0.0002035,
      "inclination_deg": 97.6033,
      "raan_deg": 332.2235,
      "arg_perigee_deg": 78.5146,
      "mean_anomaly_deg": 281.6309,
      "mean_motion_rev_day": 15.05635849
    }
  ]
}